CALSPHERE 1             
1 00900U 64063C   26073.46591633  .00000707  00000+0  71205-3 0  9994
2 00900  90.2163  69.5589 0024051 215.3482 271.7033 13.76504597 58396
CALSPHERE 2             
1 00902U 64063E   26073.52509635  .00000072  00000+0  94680-4 0  9992
2 00902  90.2284  73.5462 0019879 137.6797 353.0668 13.52892132843461
LCS 1                   
1 01361U 65034C   26073.55554972  .00000007  00000+0 -22504-3 0  9992
2 01361  32.1447  41.7067 0013223 147.3939 212.7376  9.89309920200511
TEMPSAT 1               
1 01512U 65065E   26073.37359939  .00000045  00000+0  70351-4 0  9995
2 01512  89.9948 212.5844 0070623 153.6596 260.7213 13.33589633947417
CALSPHERE 4A            
1 01520U 65065H   26073.59810321  .00000113  00000+0  19847-3 0  9993
2 01520  89.9022 123.4249 0069777  12.4276 148.7712 13.36260123950071
OPS 5712 (P/L 160)      
1 02826U 67053A   26073.57688145  .00011880  00000+0  17195-2 0  9993
2 02826  69.9160 269.9397 0003898 219.8933 140.1928 14.76279343 52265
OPS 5712 (P/L 153)      
1 02874U 67053H   26073.38380790  .00000059  00000+0  80611-4 0  9991
2 02874  69.9754 318.5105 0009366 305.5873  54.4359 13.96812828993549
RIGIDSPHERE 2 (LCS 4)   
1 05398U 71067E   26073.54311435  .00000832  00000+0  26508-3 0  9996
2 05398  87.6277   5.0659 0059453 184.7022 175.3627 14.37751162860281
COSMOS 2493 (SKRL-756 1)
1 39490U 13078A   26073.54569661  .00004192  00000+0  32067-3 0  9990
2 39490  82.4167 353.7453 0012414 197.1191 162.9617 15.01625410663750
COSMOS 2494 (SKRL-756 2)
1 39491U 13078B   26073.57842046  .00004745  00000+0  33823-3 0  9990
2 39491  82.4163 343.4968 0016752 160.9336 199.2521 15.04260546664589
