[{"OBJECT_NAME":"CALSPHERE 1","OBJECT_ID":"1964-063C","EPOCH":"2026-03-14T11:10:55.170912","MEAN_MOTION":13.76504597,"ECCENTRICITY":0.00240518,"INCLINATION":90.2163,"RA_OF_ASC_NODE":69.5589,"ARG_OF_PERICENTER":215.3482,"MEAN_ANOMALY":271.7033,"EPHEMERIS_TYPE":0,"CLASSIFICATION_TYPE":"U","NORAD_CAT_ID":900,"ELEMENT_SET_NO":999,"REV_AT_EPOCH":5839,"BSTAR":0.00071204543,"MEAN_MOTION_DOT":7.07e-6,"MEAN_MOTION_DDOT":0},{"OBJECT_NAME":"CALSPHERE 2","OBJECT_ID":"1964-063E","EPOCH":"2026-03-14T12:36:08.324640","MEAN_MOTION":13.52892132,"ECCENTRICITY":0.00198793,"INCLINATION":90.2284,"RA_OF_ASC_NODE":73.5462,"ARG_OF_PERICENTER":137.6797,"MEAN_ANOMALY":353.0668,"EPHEMERIS_TYPE":0,"CLASSIFICATION_TYPE":"U","NORAD_CAT_ID":902,"ELEMENT_SET_NO":999,"REV_AT_EPOCH":84346,"BSTAR":9.4680292e-5,"MEAN_MOTION_DOT":7.2e-7,"MEAN_MOTION_DDOT":0},{"OBJECT_NAME":"LCS 1","OBJECT_ID":"1965-034C","EPOCH":"2026-03-14T13:19:59.495808","MEAN_MOTION":9.8930992,"ECCENTRICITY":0.0013223,"INCLINATION":32.1447,"RA_OF_ASC_NODE":41.7067,"ARG_OF_PERICENTER":147.3939,"MEAN_ANOMALY":212.7376,"EPHEMERIS_TYPE":0,"CLASSIFICATION_TYPE":"U","NORAD_CAT_ID":1361,"ELEMENT_SET_NO":999,"REV_AT_EPOCH":20051,"BSTAR":-0.00022504308,"MEAN_MOTION_DOT":7.0e-8,"MEAN_MOTION_DDOT":0},{"OBJECT_NAME":"TEMPSAT 1","OBJECT_ID":"1965-065E","EPOCH":"2026-03-14T08:57:58.987296","MEAN_MOTION":13.33589633,"ECCENTRICITY":0.00706231,"INCLINATION":89.9948,"RA_OF_ASC_NODE":212.5844,"ARG_OF_PERICENTER":153.6596,"MEAN_ANOMALY":260.7213,"EPHEMERIS_TYPE":0,"CLASSIFICATION_TYPE":"U","NORAD_CAT_ID":1512,"ELEMENT_SET_NO":999,"REV_AT_EPOCH":94741,"BSTAR":7.0351463e-5,"MEAN_MOTION_DOT":4.5e-7,"MEAN_MOTION_DDOT":0},{"OBJECT_NAME":"CALSPHERE 4A","OBJECT_ID":"1965-065H","EPOCH":"2026-03-14T14:21:16.117344","MEAN_MOTION":13.36260123,"ECCENTRICITY":0.00697775,"INCLINATION":89.9022,"RA_OF_ASC_NODE":123.4249,"ARG_OF_PERICENTER":12.4276,"MEAN_ANOMALY":148.7712,"EPHEMERIS_TYPE":0,"CLASSIFICATION_TYPE":"U","NORAD_CAT_ID":1520,"ELEMENT_SET_NO":999,"REV_AT_EPOCH":95007,"BSTAR":0.00019846896,"MEAN_MOTION_DOT":1.13e-6,"MEAN_MOTION_DDOT":0},{"OBJECT_NAME":"OPS 5712 (P/L 160)","OBJECT_ID":"1967-053A","EPOCH":"2026-03-14T13:50:42.557280","MEAN_MOTION":14.76279343,"ECCENTRICITY":0.00038987,"INCLINATION":69.916,"RA_OF_ASC_NODE":269.9397,"ARG_OF_PERICENTER":219.8933,"MEAN_ANOMALY":140.1928,"EPHEMERIS_TYPE":0,"CLASSIFICATION_TYPE":"U","NORAD_CAT_ID":2826,"ELEMENT_SET_NO":999,"REV_AT_EPOCH":5226,"BSTAR":0.0017194771,"MEAN_MOTION_DOT":0.0001188,"MEAN_MOTION_DDOT":0},{"OBJECT_NAME":"OPS 5712 (P/L 153)","OBJECT_ID":"1967-053H","EPOCH":"2026-03-14T09:12:41.002560","MEAN_MOTION":13.96812828,"ECCENTRICITY":0.00093668,"INCLINATION":69.9754,"RA_OF_ASC_NODE":318.5105,"ARG_OF_PERICENTER":305.5873,"MEAN_ANOMALY":54.4359,"EPHEMERIS_TYPE":0,"CLASSIFICATION_TYPE":"U","NORAD_CAT_ID":2874,"ELEMENT_SET_NO":999,"REV_AT_EPOCH":99354,"BSTAR":8.0611332e-5,"MEAN_MOTION_DOT":5.9e-7,"MEAN_MOTION_DDOT":0},{"OBJECT_NAME":"RIGIDSPHERE 2 (LCS 4)","OBJECT_ID":"1971-067E","EPOCH":"2026-03-14T13:02:05.079840","MEAN_MOTION":14.37751162,"ECCENTRICITY":0.00594538,"INCLINATION":87.6277,"RA_OF_ASC_NODE":5.0659,"ARG_OF_PERICENTER":184.7022,"MEAN_ANOMALY":175.3627,"EPHEMERIS_TYPE":0,"CLASSIFICATION_TYPE":"U","NORAD_CAT_ID":5398,"ELEMENT_SET_NO":999,"REV_AT_EPOCH":86028,"BSTAR":0.00026508146,"MEAN_MOTION_DOT":8.32e-6,"MEAN_MOTION_DDOT":0},{"OBJECT_NAME":"COSMOS 2493 (SKRL-756 1)","OBJECT_ID":"2013-078A","EPOCH":"2026-03-14T13:05:48.187104","MEAN_MOTION":15.0162541,"ECCENTRICITY":0.00124148,"INCLINATION":82.4167,"RA_OF_ASC_NODE":353.7453,"ARG_OF_PERICENTER":197.1191,"MEAN_ANOMALY":162.9617,"EPHEMERIS_TYPE":0,"CLASSIFICATION_TYPE":"U","NORAD_CAT_ID":39490,"ELEMENT_SET_NO":999,"REV_AT_EPOCH":66375,"BSTAR":0.00032067488,"MEAN_MOTION_DOT":4.192e-5,"MEAN_MOTION_DDOT":0},{"OBJECT_NAME":"COSMOS 2494 (SKRL-756 2)","OBJECT_ID":"2013-078B","EPOCH":"2026-03-14T13:52:55.527744","MEAN_MOTION":15.04260546,"ECCENTRICITY":0.00167529,"INCLINATION":82.4163,"RA_OF_ASC_NODE":343.4968,"ARG_OF_PERICENTER":160.9336,"MEAN_ANOMALY":199.2521,"EPHEMERIS_TYPE":0,"CLASSIFICATION_TYPE":"U","NORAD_CAT_ID":39491,"ELEMENT_SET_NO":999,"REV_AT_EPOCH":66458,"BSTAR":0.00033822603,"MEAN_MOTION_DOT":4.745e-5,"MEAN_MOTION_DDOT":0}]
